H1 CPF  1  HTS 2022  3  5 12  5641 larets           NONE
H2  0304206 5557    27944 2022 03 05  0  0  0 2022 03 10  0  0  0   180 1 1  0 0 0
H5  0.0560 
H9 
10 0 59646  82440.00000  0   -4829973.466   -4904685.054   -1565410.512
10 0 59646  82620.00000  0   -4732785.372   -4405125.455   -2834066.265
10 0 59646  82800.00000  0   -4448000.761   -3750074.907   -3998714.982
10 0 59646  82980.00000  0   -3982466.706   -2968381.906   -5016772.042
10 0 59646  83160.00000  0   -3350419.017   -2093191.045   -5851144.676
10 0 59646  83340.00000  0   -2573007.746   -1160508.512   -6471556.763
10 0 59646  83520.00000  0   -1677546.094    -207701.289   -6855598.125
10 0 59646  83700.00000  0    -696518.130     728002.608   -6989471.264
10 0 59646  83880.00000  0     333606.855    1610953.118   -6868433.896
10 0 59646  84060.00000  0    1373717.823    2408415.513   -6496943.817
10 0 59646  84240.00000  0    2383530.772    3091770.528   -5888504.743
10 0 59646  84420.00000  0    3323136.354    3637540.082   -5065204.580
10 0 59646  84600.00000  0    4154571.803    4028203.662   -4056959.486
10 0 59646  84780.00000  0    4843367.206    4252780.949   -2900474.251
10 0 59646  84960.00000  0    5359998.960    4307149.097   -1637934.733
10 0 59646  85140.00000  0    5681178.004    4194076.210    -315474.135
10 0 59646  85320.00000  0    5790907.542    3922966.122    1018530.806
10 0 59646  85500.00000  0    5681254.931    3509324.099    2315262.908
10 0 59646  85680.00000  0    5352793.336    2973966.078    3527291.104
10 0 59646  85860.00000  0    4814686.020    2342015.953    4610337.635
10 0 59646  86040.00000  0    4084413.439    1641742.777    5524903.150
10 0 59646  86220.00000  0    3187168.522     903304.723    6237692.270
10 0 59647      0.00000  0    2154943.921     157455.307    6722789.042
10 0 59647    180.00000  0    1025368.368    -565724.481    6962550.262
10 0 59647    360.00000  0    -159668.600   -1238024.567    6948215.478
10 0 59647    540.00000  0   -1355562.809   -1834196.510    6680210.896
10 0 59647    720.00000  0   -2516656.959   -2332897.503    6168143.115
10 0 59647    900.00000  0   -3597965.880   -2717456.781    5430493.114
10 0 59647   1080.00000  0   -4556929.355   -2976449.563    4494009.722
10 0 59647   1260.00000  0   -5355120.683   -3104050.335    3392787.519
10 0 59647   1440.00000  0   -5959833.397   -3100145.196    2167060.887
10 0 59647   1620.00000  0   -6345481.437   -2970200.682     861745.589
10 0 59647   1800.00000  0   -6494734.930   -2724887.086    -475233.154
10 0 59647   1980.00000  0   -6399323.236   -2379468.204   -1794751.885
10 0 59647   2160.00000  0   -6060454.583   -1952989.512   -3048359.552
10 0 59647   2340.00000  0   -5488828.433   -1467310.383   -4190110.998
10 0 59647   2520.00000  0   -4704250.321    -946035.113   -5178282.025
10 0 59647   2700.00000  0   -3734874.687    -413398.823   -5976895.390
10 0 59647   2880.00000  0   -2616119.327     106834.783   -6556998.639
10 0 59647   3060.00000  0   -1389314.266     592409.742   -6897656.933
10 0 59647   3240.00000  0    -100146.444    1023504.330   -6986647.130
10 0 59647   3420.00000  0    1203038.506    1383519.521   -6820847.883
10 0 59647   3600.00000  0    2471028.670    1659704.590   -6406334.824
10 0 59647   3780.00000  0    3655588.016    1843604.425   -5758169.621
10 0 59647   3960.00000  0    4711281.100    1931311.614   -4899883.636
10 0 59647   4140.00000  0    5597225.529    1923518.335   -3862672.111
10 0 59647   4320.00000  0    6278708.825    1825365.173   -2684303.640
10 0 59647   4500.00000  0    6728598.311    1646090.311   -1407774.159
10 0 59647   4680.00000  0    6928477.004    1398493.459     -79739.880
10 0 59647   4860.00000  0    6869436.488    1098235.456    1251212.192
10 0 59647   5040.00000  0    6552482.840     763011.383    2536377.136
10 0 59647   5220.00000  0    5988536.644     411637.017    3728754.810
10 0 59647   5400.00000  0    5198019.702      63097.630    4784796.428
10 0 59647   5580.00000  0    4210060.487    -264387.726    5665997.957
10 0 59647   5760.00000  0    3061363.692    -554243.661    6340284.852
10 0 59647   5940.00000  0    1794801.424    -792313.536    6783138.787
10 0 59647   6120.00000  0     457793.423    -967502.955    6978447.255
10 0 59647   6300.00000  0    -899470.794   -1072268.927    6919057.212
10 0 59647   6480.00000  0   -2225901.293   -1102936.239    6607021.354
10 0 59647   6660.00000  0   -3471409.688   -1059829.457    6053541.214
10 0 59647   6840.00000  0   -4588794.618    -947216.379    5278611.333
10 0 59647   7020.00000  0   -5535557.529    -773067.515    4310354.424
10 0 59647   7200.00000  0   -6275571.291    -548635.551    3184047.979
10 0 59647   7380.00000  0   -6780526.777    -287869.509    1940870.056
10 0 59647   7560.00000  0   -7031096.107      -6688.029     626398.739
10 0 59647   7740.00000  0   -7017740.710     277852.631    -711091.330
10 0 59647   7920.00000  0   -6741109.611     548454.080   -2022458.039
10 0 59647   8100.00000  0   -6212005.586     788486.174   -3259557.528
10 0 59647   8280.00000  0   -5450926.296     982863.826   -4377066.685
10 0 59647   8460.00000  0   -4487196.014    1118843.536   -5334173.969
10 0 59647   8640.00000  0   -3357751.800    1186696.962   -6096061.483
10 0 59647   8820.00000  0   -2105655.830    1180230.087   -6635131.682
10 0 59647   9000.00000  0    -778407.002    1097128.987   -6931949.478
10 0 59647   9180.00000  0     573876.978     939123.036   -6975881.188
10 0 59647   9360.00000  0    1900336.598     711960.155   -6765434.199
10 0 59647   9540.00000  0    3151263.163     425195.711   -6308298.848
10 0 59647   9720.00000  0    4279945.664      91801.625   -5621079.570
10 0 59647   9900.00000  0    5244410.311    -272392.321   -4728727.469
10 0 59647  10080.00000  0    6009003.661    -649405.345   -3663684.281
10 0 59647  10260.00000  0    6545756.092   -1019935.942   -2464744.398
10 0 59647  10440.00000  0    6835463.110   -1364281.702   -1175665.967
10 0 59647  10620.00000  0    6868428.753   -1663304.424     156428.392
10 0 59647  10800.00000  0    6644826.659   -1899392.238    1482798.680
10 0 59647  10980.00000  0    6174654.581   -2057369.536    2754910.301
10 0 59647  11160.00000  0    5477281.056   -2125305.305    3926249.906
10 0 59647  11340.00000  0    4580608.648   -2095176.607    4954049.075
10 0 59647  11520.00000  0    3519908.989   -1963355.605    5800843.113
10 0 59647  11700.00000  0    2336389.529   -1730899.963    6435815.391
10 0 59647  11880.00000  0    1075558.731   -1403635.733    6835877.940
10 0 59647  12060.00000  0    -214535.834    -992031.421    6986468.290
10 0 59647  12240.00000  0   -1485132.178    -510866.239    6882046.829
10 0 59647  12420.00000  0   -2688577.874      21294.876    6526291.763
10 0 59647  12600.00000  0   -3780102.645     582805.748    5931992.635
10 0 59647  12780.00000  0   -4719490.920    1149801.965    5120638.319
10 0 59647  12960.00000  0   -5472598.722    1697195.144    4121695.359
10 0 59647  13140.00000  0   -6012652.051    2199764.297    2971584.098
10 0 59647  13320.00000  0   -6321266.317    2633297.208    1712377.722
10 0 59647  13500.00000  0   -6389139.447    2975729.777     390261.418
10 0 59647  13680.00000  0   -6216371.177    3208224.237    -946198.415
10 0 59647  13860.00000  0   -5812383.048    3316124.708   -2247895.554
10 0 59647  14040.00000  0   -5195441.141    3289738.560   -3467053.551
10 0 59647  14220.00000  0   -4391802.820    3124899.088   -4559031.761
10 0 59647  14400.00000  0   -3434543.345    2823282.035   -5483980.117
10 0 59647  14580.00000  0   -2362135.337    2392466.338   -6208276.325
10 0 59647  14760.00000  0   -1216857.983    1845744.660   -6705705.408
10 0 59647  14940.00000  0     -43104.059    1201693.450   -6958349.722
10 0 59647  15120.00000  0    1114338.261     483526.614   -6957175.910
10 0 59647  15300.00000  0    2211976.668    -281742.651   -6702324.033
10 0 59647  15480.00000  0    3209230.797   -1064310.253   -6203088.938
10 0 59647  15660.00000  0    4069919.149   -1832725.271   -5477598.277
10 0 59647  15840.00000  0    4763575.824   -2555136.492   -4552196.268
10 0 59647  16020.00000  0    5266554.199   -3200604.747   -3460535.412
10 0 59647  16200.00000  0    5562869.708   -3740423.793   -2242392.574
10 0 59647  16380.00000  0    5644745.563   -4149392.087    -942238.943
10 0 59647  16560.00000  0    5512826.727   -4406974.548     392389.350
10 0 59647  16740.00000  0    5176046.293   -4498294.679    1712657.760
10 0 59647  16920.00000  0    4651142.925   -4414899.555    2970262.182
10 0 59647  17100.00000  0    3961857.058   -4155253.400    4119231.728
10 0 59647  17280.00000  0    3137853.012   -3724942.540    5117627.654
10 0 59647  17460.00000  0    2213421.334   -3136581.499    5929070.303
10 0 59647  17640.00000  0    1226032.227   -2409428.981    6524037.632
10 0 59647  17820.00000  0     214805.437   -1568736.934    6880896.596
10 0 59647  18000.00000  0    -781036.737    -644863.099    6986646.420
10 0 59647  18180.00000  0   -1723676.721     327823.412    6837365.189
10 0 59647  18360.00000  0   -2578124.023    1312208.559    6438353.946
10 0 59647  18540.00000  0   -3313510.072    2269833.990    5803974.506
10 0 59647  18720.00000  0   -3904215.969    3162390.310    4957181.580
10 0 59647  18900.00000  0   -4330796.649    3953256.174    3928748.273
10 0 59647  19080.00000  0   -4580662.386    4609023.198    2756193.790
10 0 59647  19260.00000  0   -4648481.880    5100942.062    1482436.362
10 0 59647  19440.00000  0   -4536279.622    5406214.423     154211.609
10 0 59647  19620.00000  0   -4253222.964    5509060.233   -1179680.301
10 0 59647  19800.00000  0   -3815099.786    5401502.374   -2470231.434
10 0 59647  19980.00000  0   -3243506.951    5083813.552   -3670092.184
10 0 59647  20160.00000  0   -2564802.342    4564607.450   -4735354.131
10 0 59647  20340.00000  0   -1808882.201    3860574.900   -5627167.003
99
